NORAD_CAT_ID,OBJECT_NAME,OBJECT_TYPE,EPOCH,MEAN_MOTION,ECCENTRICITY,INCLINATION,RA_OF_ASC_NODE,ARG_OF_PERICENTER,MEAN_ANOMALY,BSTAR,MEAN_MOTION_DOT,MEAN_MOTION_DDOT,TLE_LINE0,TLE_LINE1,TLE_LINE2,SEMIMAJOR_AXIS,PERIOD,APOGEE,PERIGEE,DECAYED
51144.0,STARLINK-3185,PAYLOAD,2022-03-08 22:00:00,15.73463392,0.0003096,53.2165,32.5857,7.7758,254.473,-0.005059,-0.00665048,0.0,0 STARLINK-3185,1 51144U 22005AS  22067.91667824 -.00665048  00000-0 -50590-2 0  9996,2 51144  53.2165  32.5857 0003096   7.7758 254.4730 15.73463392  3709,6727.144,91.518,351.092,346.927,0.0
51144.0,STARLINK-3185,PAYLOAD,2022-03-09 06:00:00,15.72966033,0.0003662,53.2171,30.9327,4.8409,346.3684,-0.0016405,-0.00222748,0.0,0 STARLINK-3185,1 51144U 22005AS  22068.25001157 -.00222748  00000-0 -16405-2 0  9998,2 51144  53.2171  30.9327 0003662   4.8409 346.3684 15.72966033  9063,6728.562,91.547,352.891,347.963,0.0
51144.0,STARLINK-3185,PAYLOAD,2022-03-09 14:00:01,15.72808453,0.0003481999999999,53.2174,29.2798,4.7429,75.0467,-0.005658,-0.00718601,0.0,0 STARLINK-3185,1 51144U 22005AS  22068.58334491 -.00718601  00000-0 -56580-2 0  9990,2 51144  53.2174  29.2798 0003482   4.7429  75.0467 15.72808453  9112,6729.012,91.556,353.22,348.534,0.0
51144.0,STARLINK-3185,PAYLOAD,2022-03-09 22:00:01,15.72298397,0.000406,53.2177,27.6323,2.5878,165.4131,-0.0057729,-0.0071761,0.0,0 STARLINK-3185,1 51144U 22005AS  22068.91668981 -.00717610  00000-0 -57729-2 0  9996,2 51144  53.2177  27.6323 0004060   2.5878 165.4131 15.72298397  3697,6730.467,91.586,355.064,349.599,0.0
51144.0,STARLINK-3185,PAYLOAD,2022-03-10 14:00:01,15.71208147,0.000565,53.2173,24.3459,293.0742,49.3485,-0.0051889,-0.00623248,0.0,0 STARLINK-3185,1 51144U 22005AS  22069.58334491 -.00623248  00000-0 -51889-2 0  9990,2 51144  53.2173  24.3459 0005650 293.0742  49.3485 15.71208147  3673,6733.58,91.649,359.25,351.641,0.0
51144.0,STARLINK-3185,PAYLOAD,2022-03-10 20:00:01,15.70889406,0.0004904,53.2175,23.1099,310.7312,6.4471,-0.0060201,-0.00706095,0.0,0 STARLINK-3185,1 51144U 22005AS  22069.83334491 -.00706095  00000-0 -60201-2 0  9998,2 51144  53.2175  23.1099 0004904 310.7312   6.4471 15.70889406  9311,6734.491,91.668,359.658,353.05300000000005,0.0
51144.0,STARLINK-3185,PAYLOAD,2022-03-10 22:00:01,15.7077672,0.0004948999999999,53.2176,22.6997,317.7447,111.0132,-0.0062924,-0.00732246,0.0,0 STARLINK-3185,1 51144U 22005AS  22069.91668981 -.00732246  00000-0 -62924-2 0  9992,2 51144  53.2176  22.6997 0004949 317.7447 111.0132 15.70776720  3706,6734.813,91.674,360.011,353.345,0.0
51144.0,STARLINK-3185,PAYLOAD,2022-03-11 12:00:00,15.69885831,0.0002004,53.2173,19.8283,286.9303,201.3244,-0.0065685,-0.00735031,0.0,0 STARLINK-3185,1 51144U 22005AS  22070.50001157 -.00735031  00000-0 -65685-2 0  9997,2 51144  53.2173  19.8283 0002004 286.9303 201.3244 15.69885831  9410,6737.361,91.726,360.576,357.875,0.0
51144.0,STARLINK-3185,PAYLOAD,2022-03-11 14:00:01,15.697461,0.00014,53.2175,19.4177,288.1847,311.2875,-0.0064009,-0.00713792,0.0,0 STARLINK-3185,1 51144U 22005AS  22070.58334491 -.00713792  00000-0 -64009-2 0  9994,2 51144  53.2175  19.4177 0001400 288.1847 311.2875 15.69746100  3685,6737.76,91.735,360.569,358.682,0.0
51144.0,STARLINK-3185,PAYLOAD,2022-03-11 22:00:00,15.69235039,9.39e-05,53.2176,17.7782,13.3506,310.5909,-0.0065057,-0.00710371,0.0,0 STARLINK-3185,1 51144U 22005AS  22070.91667824 -.00710371  00000-0 -65057-2 0  9994,2 51144  53.2176  17.7782 0000939  13.3506 310.5909 15.69235039  3690,6739.223000000001,91.764,361.721,360.455,0.0
51144.0,STARLINK-3185,PAYLOAD,2022-03-12 06:00:00,15.68727743,0.0001314,53.2176,16.1421,42.68600000000001,5.1094,-0.0067021,-0.00716139,0.0,0 STARLINK-3185,1 51144U 22005AS  22071.25001157 -.00716139  00000-0 -67021-2 0  9994,2 51144  53.2176  16.1421 0001314  42.6860   5.1094 15.68727743  9537,6740.676,91.794,363.427,361.655,0.0
51144.0,STARLINK-3185,PAYLOAD,2022-03-12 14:00:01,15.68218296,0.0001179,53.2176,14.5034,63.8652,67.1742,-0.0068471,-0.00716337,0.0,0 STARLINK-3185,1 51144U 22005AS  22071.58334491 -.00716337  00000-0 -68471-2 0  9990,2 51144  53.2176  14.5034 0001179  63.8652  67.1742 15.68218296  3699,6742.136,91.824,364.796,363.206,0.0
51144.0,STARLINK-3185,PAYLOAD,2022-03-12 22:00:00,15.67708239,0.0001343,53.2177,12.8679,60.4322,153.2376,-0.006987,-0.00715866,0.0,0 STARLINK-3185,1 51144U 22005AS  22071.91667824 -.00715866  00000-0 -69870-2 0  9996,2 51144  53.2177  12.8679 0001343  60.4322 153.2376 15.67708239  3708,6743.598000000001,91.854,366.369,364.557,0.0
51144.0,STARLINK-3185,PAYLOAD,2022-03-13 06:00:00,15.67197506,0.0001177,53.2175,11.2355,69.7912,225.8955,-0.0071248999999999,-0.00714923,0.0,0 STARLINK-3185,1 51144U 22005AS  22072.25001157 -.00714923  00000-0 -71249-2 0  9991,2 51144  53.2175  11.2355 0001177  69.7912 225.8955 15.67197506  9694,6745.063,91.884,367.722,366.134,0.0
51144.0,STARLINK-3185,PAYLOAD,2022-03-13 14:00:01,15.66688465,0.0001006,53.2175,9.6006,72.3127,304.7796,-0.0072907,-0.00716362,0.0,0 STARLINK-3185,1 51144U 22005AS  22072.58334491 -.00716362  00000-0 -72907-2 0  9998,2 51144  53.2175   9.6006 0001006  72.3127 304.7796 15.66688465  3712,6746.524,91.914,369.068,367.71,0.0
51144.0,STARLINK-3185,PAYLOAD,2022-03-13 22:00:01,15.6617928,0.000126,53.2175,7.9688,56.2561,41.6931,-0.007454,-0.0071738,0.0,0 STARLINK-3185,1 51144U 22005AS  22072.91668981 -.00717380  00000-0 -74540-2 0  9995,2 51144  53.2175   7.9688 0001260  56.2561  41.6931 15.66179280  3699,6747.986,91.943,370.702,369.001,0.0
51144.0,STARLINK-3185,PAYLOAD,2022-03-14 04:00:00,15.65797734,0.000112,53.2174,6.7474,72.8484,355.2261,-0.0075866,-0.00718801,0.0,0 STARLINK-3185,1 51144U 22005AS  22073.16667824 -.00718801  00000-0 -75866-2 0  9999,2 51144  53.2174   6.7474 0001120  72.8484 355.2261 15.65797734  9832,6749.081999999999,91.966,371.703,370.192,0.0
51144.0,STARLINK-3185,PAYLOAD,2022-03-14 14:00:01,15.65158776,0.0001174,53.2177,4.7085,78.0686,179.6268,-0.0077541,-0.00716239,0.0,0 STARLINK-3185,1 51144U 22005AS  22073.58335648 -.00716239  00000-0 -77541-2 0  9996,2 51144  53.2177   4.7085 0001174  78.0686 179.6268 15.65158776  3692,6750.919,92.003,373.577,371.992,0.0
51144.0,STARLINK-3185,PAYLOAD,2022-03-14 20:00:01,15.64776603,0.0001273,53.2177,3.4872,73.6872,153.2152,-0.0078654,-0.0071555,0.0,0 STARLINK-3185,1 51144U 22005AS  22073.83334491 -.00715550  00000-0 -78654-2 0  9990,2 51144  53.2177   3.4872 0001273  73.6872 153.2152 15.64776603  3672,6752.018,92.026,374.74300000000005,373.024,0.0
51144.0,STARLINK-3185,PAYLOAD,2022-03-14 22:00:00,15.64650209,0.0001085999999999,53.2178,3.0810000000000004,72.1069,264.4761,-0.0079408,-0.00718465,0.0,0 STARLINK-3185,1 51144U 22005AS  22073.91667824 -.00718465  00000-0 -79408-2 0  9994,2 51144  53.2178   3.0810 0001086  72.1069 264.4761 15.64650209  9956,6752.382,92.033,374.98,373.514,0.0
51144.0,STARLINK-3185,PAYLOAD,2022-03-15 02:00:01,15.64393317,0.0001339,53.2175,2.2684,65.592,130.2383,-0.0079885,-0.00715699,0.0,0 STARLINK-3185,1 51144U 22005AS  22074.08334491 -.00715699  00000-0 -79885-2 0  9999,2 51144  53.2175   2.2684 0001339  65.5920 130.2383 15.64393317  3673,6753.121,92.048,375.89,374.082,0.0
51144.0,STARLINK-3185,PAYLOAD,2022-03-15 22:00:00,15.631182699999998,0.000137,53.2175,358.2041,59.4635,150.3047,-0.008391,-0.00714742,0.0,0 STARLINK-3185,1 51144U 22005AS  22074.91667824 -.00714742  00000-0 -83910-2 0  9992,2 51144  53.2175 358.2041 0001370  59.4635 150.3047 15.63118270  3687,6756.793000000002,92.124,379.584,377.732,0.0
51144.0,STARLINK-3185,PAYLOAD,2022-03-16 04:00:00,15.62734792,0.0001247,53.2175,356.98800000000006,81.3344,95.8675,-0.0084947999999999,-0.00712866,0.0,0 STARLINK-3185,1 51144U 22005AS  22075.16667824 -.00712866  00000-0 -84948-2 0  9997,2 51144  53.2175 356.9880 0001247  81.3344  95.8675 15.62734792 10159,6757.898,92.146,380.606,378.921,0.0
51144.0,STARLINK-3185,PAYLOAD,2022-03-16 14:00:01,15.62097253,0.0001005,53.2175,354.9584,78.3007,283.8605,-0.0087131,-0.00713046,0.0,0 STARLINK-3185,1 51144U 22005AS  22075.58334491 -.00713046  00000-0 -87131-2 0  9992,2 51144  53.2175 354.9584 0001005  78.3007 283.8605 15.62097253  3688,6759.736999999999,92.184,382.281,380.923,0.0
51144.0,STARLINK-3185,PAYLOAD,2022-03-16 20:00:01,15.61717341,0.0001146,53.2177,353.7429,70.6276,258.0475,-0.0088878999999999,-0.00716359,0.0,0 STARLINK-3185,1 51144U 22005AS  22075.83334491 -.00716359  00000-0 -88879-2 0  9990,2 51144  53.2177 353.7429 0001146  70.6276 258.0475 15.61717341  3689,6760.833000000001,92.206,383.473,381.923,0.0
51144.0,STARLINK-3185,PAYLOAD,2022-03-17 06:00:00,15.61076262,0.0001164,53.2174,351.7202,81.2359,70.8655,-0.0090308,-0.00710463,0.0,0 STARLINK-3185,1 51144U 22005AS  22076.25001157 -.00710463  00000-0 -90308-2 0  9997,2 51144  53.2174 351.7202 0001164  81.2359  70.8655 15.61076262 10311,6762.684,92.244,385.336,383.762,0.0
51144.0,STARLINK-3185,PAYLOAD,2022-03-17 14:00:01,15.60567248,0.0001218,53.2176,350.0998,78.3101,147.8437,-0.0092308,-0.00711897,0.0,0 STARLINK-3185,1 51144U 22005AS  22076.58334491 -.00711897  00000-0 -92308-2 0  9997,2 51144  53.2176 350.0998 0001218  78.3101 147.8437 15.60567248  3693,6764.154,92.274,386.843,385.196,0.0
51144.0,STARLINK-3185,PAYLOAD,2022-03-17 22:00:00,15.60058938,0.0001152,53.2177,348.4840000000001,78.2716,221.3195,-0.0094561,-0.0071483,0.0,0 STARLINK-3185,1 51144U 22005AS  22076.91667824 -.00714830  00000-0 -94561-2 0  9996,2 51144  53.2177 348.4840 0001152  78.2716 221.3195 15.60058938  3701,6765.624,92.304,388.268,386.709,0.0
51144.0,STARLINK-3185,PAYLOAD,2022-03-18 06:00:00,15.59478882,0.0001064,53.217,346.8679,73.2783,299.1743,-0.0082744,-0.00619086,0.0,0 STARLINK-3185,1 51144U 22005AS  22077.25001157 -.00619086  00000-0 -82744-2 0  9992,2 51144  53.2170 346.8679 0001064  73.2783 299.1743 15.59478882 10473,6767.301,92.339,389.886,388.446,0.0
